NORAD_CAT_ID,OBJECT_NAME,OBJECT_TYPE,EPOCH,MEAN_MOTION,ECCENTRICITY,INCLINATION,RA_OF_ASC_NODE,ARG_OF_PERICENTER,MEAN_ANOMALY,BSTAR,MEAN_MOTION_DOT,MEAN_MOTION_DDOT,TLE_LINE0,TLE_LINE1,TLE_LINE2,SEMIMAJOR_AXIS,PERIOD,APOGEE,PERIGEE,DECAYED
56795.0,STARLINK-6061,PAYLOAD,2024-06-13 21:56:02,14.98330208,0.0002946,69.999,122.2838,270.2778,89.8043,3.2186e-05,2.91e-06,0.0,0 STARLINK-6061,1 56795U 23078AE  24165.91391746  .00000291  00000-0  32186-4 0  9996,2 56795  69.9990 122.2838 0002946 270.2778  89.8043 14.98330208 58245,6950.192,96.107,574.105,570.01,0.0
56795.0,STARLINK-6061,PAYLOAD,2024-06-14 13:57:23,14.98329183,0.0002893,69.9993,120.6007,270.3661,89.7166,-2.2846e-06,-1.2e-06,0.0,0 STARLINK-6061,1 56795U 23078AE  24166.58151817 -.00000120  00000-0 -22846-5 0  9999,2 56795  69.9993 120.6007 0002893 270.3661  89.7166 14.98329183 58347,6950.195,96.107,574.071,570.05,0.0
56795.0,STARLINK-6061,PAYLOAD,2024-06-14 21:58:03,14.9833158,0.0002895,69.9993,119.7591,270.4451,89.6377,-6.1173e-06,-1.66e-06,0.0,0 STARLINK-6061,1 56795U 23078AE  24166.91531656 -.00000166  00000-0 -61173-5 0  9995,2 56795  69.9993 119.7591 0002895 270.4451  89.6377 14.98331580 58396,6950.188,96.107,574.065,570.041,0.0
56795.0,STARLINK-6061,PAYLOAD,2024-06-15 05:58:43,14.9833261,0.00029,69.9993,118.9178,268.6678,91.4148,3.8783e-06,-4.7e-07,0.0,0 STARLINK-6061,1 56795U 23078AE  24167.24911491 -.00000047  00000-0  38783-5 0  9999,2 56795  69.9993 118.9178 0002900 268.6678  91.4148 14.98332610 58443,6950.185,96.107,574.065,570.034,0.0
56795.0,STARLINK-6061,PAYLOAD,2024-06-15 22:00:03,14.98341783,0.0002696,69.9996,117.2352,249.0977,110.9893,8.9162e-05,9.71e-06,0.0,0 STARLINK-6061,1 56795U 23078AE  24167.91670305  .00000971  00000-0  89162-4 0  9990,2 56795  69.9996 117.2352 0002696 249.0977 110.9893 14.98341783 58545,6950.156,96.106,573.895,570.148,0.0
56795.0,STARLINK-6061,PAYLOAD,2024-06-16 14:01:23,14.98340298,0.0002668,69.9991,115.5493,270.7781,89.3072,5.0108e-06,-3.3e-07,0.0,0 STARLINK-6061,1 56795U 23078AE  24168.58430009 -.00000033  00000-0  50108-5 0  9998,2 56795  69.9991 115.5493 0002668 270.7781  89.3072 14.98340298 58649,6950.161,96.106,573.88,570.172,0.0
56795.0,STARLINK-6061,PAYLOAD,2024-06-16 22:02:05,14.98314032,0.0003032,69.9993,114.7096,272.4819,87.5993,-0.00019575,-2.427e-05,0.0,0 STARLINK-6061,1 56795U 23078AE  24168.91812086 -.00002427  00000-0 -19575-3 0  9995,2 56795  69.9993 114.7096 0003032 272.4819  87.5993 14.98314032 58692,6950.242,96.108,574.215,570.0,0.0
56795.0,STARLINK-6061,PAYLOAD,2024-06-17 20:27:58,14.98334205,0.0002922,69.9991,112.3524,271.4911,88.5914,-0.00028778,-3.525e-05,0.0,0 STARLINK-6061,1 56795U 23078AE  24169.85275547 -.00003525  00000-0 -28778-3 0  9999,2 56795  69.9991 112.3524 0002922 271.4911  88.5914 14.98334205 59092,6950.18,96.107,574.076,570.014,0.0
56795.0,STARLINK-6061,PAYLOAD,2024-06-17 22:04:06,14.9833443,0.0002924,69.9993,112.184,271.6414,88.441,-0.00028218,-3.459e-05,0.0,0 STARLINK-6061,1 56795U 23078AE  24169.91951497 -.00003459  00000-0 -28218-3 0  9996,2 56795  69.9993 112.1840 0002924 271.6414  88.4410 14.98334430 58847,6950.179,96.107,574.076,570.012,0.0
56795.0,STARLINK-6061,PAYLOAD,2024-06-18 06:04:45,14.9833796,0.0002919,69.9993,111.3423,272.1498,87.9326,-0.00021244,-2.627e-05,0.0,0 STARLINK-6061,1 56795U 23078AE  24170.25330996 -.00002627  00000-0 -21244-3 0  9998,2 56795  69.9993 111.3423 0002919 272.1498  87.9326 14.98337960 59153,6950.168,96.106,574.062,570.005,0.0
56795.0,STARLINK-6061,PAYLOAD,2024-06-18 20:29:58,14.98315345,0.0002941,69.9994,109.8275,274.7744,85.3079,0.00014202,1.601e-05,0.0,0 STARLINK-6061,1 56795U 23078AE  24170.85415493  .00001601  00000-0  14202-3 0  9995,2 56795  69.9994 109.8275 0002941 274.7744  85.3079 14.98315345 58988,6950.238,96.108,574.147,570.059,0.0
56795.0,STARLINK-6061,PAYLOAD,2024-06-19 04:30:39,14.98319342,0.0002943,69.9995,108.9859,274.8882,85.1941,0.00017616,2.009e-05,0.0,0 STARLINK-6061,1 56795U 23078AE  24171.18795412  .00002009  00000-0  17616-3 0  9999,2 56795  69.9995 108.9859 0002943 274.8882  85.1941 14.98319342 59295,6950.226,96.108,574.136,570.045,0.0
56795.0,STARLINK-6061,PAYLOAD,2024-06-19 12:31:19,14.98338853,0.0003019,69.9996,108.1442,276.7615,83.32,-0.0001357,-1.712e-05,0.0,0 STARLINK-6061,1 56795U 23078AE  24171.52174998 -.00001712  00000-0 -13570-3 0  9994,2 56795  69.9996 108.1442 0003019 276.7615  83.3200 14.98338853 59348,6950.166,96.106,574.129,569.932,0.0
56795.0,STARLINK-6061,PAYLOAD,2024-06-19 20:31:59,14.98327698,0.0002825,69.9997,107.3028,274.4478,85.6358,5.9859e-05,6.21e-06,0.0,0 STARLINK-6061,1 56795U 23078AE  24171.85555466  .00000621  00000-0  59859-4 0  9990,2 56795  69.9997 107.3028 0002825 274.4478  85.6358 14.98327698 59395,6950.2,96.107,574.028,570.102,0.0
56795.0,STARLINK-6061,PAYLOAD,2024-06-19 22:08:07,14.98327833,0.0002826,69.9997,107.1345,274.4406,85.6431,5.9931e-05,6.22e-06,0.0,0 STARLINK-6061,1 56795U 23078AE  24171.92231463  .00000622  00000-0  59931-4 0  9998,2 56795  69.9997 107.1345 0002826 274.4406  85.6431 14.98327833 59143,6950.2,96.107,574.029,570.1,0.0
56795.0,STARLINK-6061,PAYLOAD,2024-06-20 12:33:20,14.98325936,0.0002782,69.9999,105.62,272.1233,87.9608,-6.7304e-06,-1.73e-06,0.0,0 STARLINK-6061,1 56795U 23078AE  24172.52315734 -.00000173  00000-0 -67304-5 0  9996,2 56795  69.9999 105.6200 0002782 272.1233  87.9608 14.98325936 59235,6950.205,96.107,574.004,570.137,0.0
56795.0,STARLINK-6061,PAYLOAD,2024-06-20 22:10:09,14.98328407,0.0002764,69.9998,104.6101,270.5831,89.5011,-2.4148e-05,-3.81e-06,0.0,0 STARLINK-6061,1 56795U 23078AE  24172.92371676 -.00000381  00000-0 -24148-4 0  9996,2 56795  69.9998 104.6101 0002764 270.5831  89.5011 14.98328407 59297,6950.198,96.107,573.984,570.142,0.0
56795.0,STARLINK-6061,PAYLOAD,2024-06-20 23:46:17,14.98328167,0.0002771,69.9999,104.4417,270.5641,89.52,-2.6558e-05,-4.1e-06,0.0,0 STARLINK-6061,1 56795U 23078AE  24172.99047700 -.00000410  00000-0 -26558-4 0  9991,2 56795  69.9999 104.4417 0002771 270.5641  89.5200 14.98328167 59566,6950.199,96.107,573.989,570.138,0.0
56795.0,STARLINK-6061,PAYLOAD,2024-06-21 06:10:49,14.98329726,0.0002786,69.9999,103.7688,267.6719,92.4121,-1.0801e-05,-2.22e-06,0.0,0 STARLINK-6061,1 56795U 23078AE  24173.25751543 -.00000222  00000-0 -10801-4 0  9993,2 56795  69.9999 103.7688 0002786 267.6719  92.4121 14.98329726 59340,6950.194,96.107,573.995,570.122,0.0
56795.0,STARLINK-6061,PAYLOAD,2024-06-21 22:12:09,14.98330459,0.0002705,70.0001,102.0851,264.3762,95.7088,-1.7851e-05,-3.06e-06,0.0,0 STARLINK-6061,1 56795U 23078AE  24173.92511491 -.00000306  00000-0 -17851-4 0  9998,2 56795  70.0001 102.0851 0002705 264.3762  95.7088 14.98330459 59448,6950.191,96.107,573.936,570.176,0.0
56795.0,STARLINK-6061,PAYLOAD,2024-06-22 04:36:42,14.98331361,0.0002738,70.0001,101.4117,264.6354,95.4493,-2.9218e-05,-4.42e-06,0.0,0 STARLINK-6061,1 56795U 23078AE  24174.19215449 -.00000442  00000-0 -29218-4 0  9993,2 56795  70.0001 101.4117 0002738 264.6354  95.4493 14.98331361 59745,6950.189,96.107,573.957,570.151,0.0
56795.0,STARLINK-6061,PAYLOAD,2024-06-22 20:37:41,14.9857605,0.0003989,70.0001,99.7281,177.4037,182.7144,0.0025832,0.00031066,0.0,0 STARLINK-6061,1 56795U 23078AE  24174.85950247  .00031066  00000-0  25832-2 0  9998,2 56795  70.0001  99.7281 0003989 177.4037 182.7144 14.98576050 59844,6949.432,96.091,574.069,568.525,0.0
56795.0,STARLINK-6061,PAYLOAD,2024-06-22 22:13:48,14.98577719,0.0002159,69.9998,99.5588,246.1113,113.982,0.0025813,0.00031041,0.0,0 STARLINK-6061,1 56795U 23078AE  24174.92625537  .00031041  00000-0  25813-2 0  9999,2 56795  69.9998  99.5588 0002159 246.1113 113.9820 14.98577719 59593,6949.427,96.091,572.792,569.792,0.0
56795.0,STARLINK-6061,PAYLOAD,2024-06-23 04:38:01,14.98764483,0.0002767,69.9996,98.885,275.1844,84.8999,0.0043894,0.00053276,0.0,0 STARLINK-6061,1 56795U 23078AE  24175.19307632  .00053276  00000-0  43894-2 0  9995,2 56795  69.9996  98.8850 0002767 275.1844  84.8999 14.98764483 59895,6948.85,96.079,572.637,568.792,0.0
56795.0,STARLINK-6061,PAYLOAD,2024-06-23 07:50:13,14.98783652,0.0002757,69.9992,98.5477,269.4488,90.6355,0.0044374,0.00053892,0.0,0 STARLINK-6061,1 56795U 23078AE  24175.32654698  .00053892  00000-0  44374-2 0  9995,2 56795  69.9992  98.5477 0002757 269.4488  90.6355 14.98783652 59915,6948.79,96.078,572.571,568.74,0.0
56795.0,STARLINK-6061,PAYLOAD,2024-06-23 22:15:08,14.98832675,0.000298,69.999,97.0327,270.7604,89.3214,0.004164,0.00050606,0.0,0 STARLINK-6061,1 56795U 23078AE  24175.92718420  .00050606  00000-0  41640-2 0  9998,2 56795  69.9990  97.0327 0002980 270.7604  89.3214 14.98832675 59744,6948.639,96.075,572.575,568.433,0.0
56795.0,STARLINK-6061,PAYLOAD,2024-06-24 04:39:31,14.98859462,0.0002942,69.9991,96.3592,265.0828,94.9995,0.0040827,0.00049644,0.0,0 STARLINK-6061,1 56795U 23078AE  24176.19411722  .00049644  00000-0  40827-2 0  9999,2 56795  69.9991  96.3592 0002942 265.0828  94.9995 14.98859462 60040,6948.556,96.073,572.465,568.377,0.0
56795.0,STARLINK-6061,PAYLOAD,2024-06-24 20:40:26,14.99033344,0.0002672,69.9993,94.6758,267.8562,92.2291,0.0015887,0.00019264,0.0,0 STARLINK-6061,1 56795U 23078AE  24176.86141746  .00019264  00000-0  15887-2 0  9992,2 56795  69.9993  94.6758 0002672 267.8562  92.2291 14.99033344 60147,6948.019,96.062,571.74,568.027,0.0
56795.0,STARLINK-6061,PAYLOAD,2024-06-25 04:40:52,14.9904661,0.0002668,69.9996,93.8344,266.927,93.1585,0.0015154,0.00018375,0.0,0 STARLINK-6061,1 56795U 23078AE  24177.19504968  .00018375  00000-0  15154-2 0  9997,2 56795  69.9996  93.8344 0002668 266.9270  93.1585 14.99046610 60194,6947.978,96.061,571.696,567.989,0.0
56795.0,STARLINK-6061,PAYLOAD,2024-06-25 20:41:40,14.99141057,0.0002846,69.9997,92.1495,264.803,95.2805,3.6181e-05,3.47e-06,0.0,0 STARLINK-6061,1 56795U 23078AE  24177.86227294  .00000347  00000-0  36181-4 0  9990,2 56795  69.9997  92.1495 0002846 264.8030  95.2805 14.99141057 60293,6947.686,96.055,571.528,567.574,0.0
